
# Worst residual: 8.52 km
# MJD 60312.000000 (2024 Jan  3  0:00)
A113Vwd
1 79942U 24999ZZW 24003.49919926  .00000000  00000-0  00000-0 0 22357
2 79942 025.6583 036.5607 7856917 333.9031 311.4302 01.63877091    00

# Worst residual: 7.84 km
# MJD 60313.000000 (2024 Jan  4  0:00)
A113Vwd
1 79942U 24999ZZW 24004.49919926  .00000000  00000-0  00000-0 0 22358
2 79942 025.6586 036.3073 7856902 334.3347 181.3775 01.63883291    04

# Worst residual: 7.77 km
# MJD 60314.000000 (2024 Jan  5  0:00)
A113Vwd
1 79942U 24999ZZW 24005.49919926  .00000000  00000-0  00000-0 0 22359
2 79942 025.6613 036.0451 7856920 334.7750 051.3999 01.63905440    09

# Worst residual: 8.99 km
# MJD 60315.000000 (2024 Jan  6  0:00)
A113Vwd
1 79942U 24999ZZW 24006.49919926  .00000000  00000-0  00000-0 0 22350
2 79942 025.6743 035.7739 7856167 335.2295 281.4313 01.63905560    00

# Worst residual: 9.18 km
# MJD 60316.000000 (2024 Jan  7  0:00)
A113Vwd
1 79942U 24999ZZW 24007.49919926  .00000000  00000-0  00000-0 0 22351
2 79942 025.6824 035.5129 7856009 335.6663 151.4808 01.63901722    00

# Worst residual: 9.38 km
# MJD 60317.000000 (2024 Jan  8  0:00)
A113Vwd
1 79942U 24999ZZW 24008.49919926  .00000000  00000-0  00000-0 0 22352
2 79942 025.6797 035.2569 7856386 336.1019 021.5174 01.63904728    05

# Worst residual: 9.96 km
# MJD 60318.000000 (2024 Jan  9  0:00)
A113Vwd
1 79942U 24999ZZW 24009.49919926  .00000000  00000-0  00000-0 0 22353
2 79942 025.6878 034.9924 7856051 336.5478 251.5510 01.63911657    06

# Worst residual: 9.85 km
# MJD 60319.000000 (2024 Jan 10  0:00)
A113Vwd
1 79942U 24999ZZW 24010.49919926  .00000000  00000-0  00000-0 0 22355
2 79942 025.6858 034.7400 7856274 336.9738 121.6346 01.63905405    09

# Worst residual: 8.67 km
# MJD 60320.000000 (2024 Jan 11  0:00)
A113Vwd
1 79942U 24999ZZW 24011.49919926  .00000000  00000-0  00000-0 0 22356
2 79942 025.6937 034.4761 7857057 337.4169 351.6486 01.63894205    03

# Worst residual: 8.91 km
# MJD 60321.000000 (2024 Jan 12  0:00)
A113Vwd
1 79942U 24999ZZW 24012.49919926  .00000000  00000-0  00000-0 0 22357
2 79942 025.7009 034.2142 7856830 337.8605 221.6310 01.63903159    03

# Worst residual: 8.13 km
# MJD 60322.000000 (2024 Jan 13  0:00)
A113Vwd
1 79942U 24999ZZW 24013.49919926  .00000000  00000-0  00000-0 0 22358
2 79942 025.7032 033.9552 7857031 338.2983 091.7327 01.63926180    01

# Worst residual: 7.84 km
# MJD 60323.000000 (2024 Jan 14  0:00)
A113Vwd
1 79942U 24999ZZW 24014.49919926  .00000000  00000-0  00000-0 0 22359
2 79942 025.7149 033.6867 7857352 338.7524 321.8073 01.63913615    02

# Worst residual: 8.15 km
# MJD 60324.000000 (2024 Jan 15  0:00)
A113Vwd
1 79942U 24999ZZW 24015.49919926  .00000000  00000-0  00000-0 0 22350
2 79942 025.7143 033.4331 7857194 339.1867 191.8704 01.63913111    06

# Worst residual: 8.59 km
# MJD 60325.000000 (2024 Jan 16  0:00)
A113Vwd
1 79942U 24999ZZW 24016.49919926  .00000000  00000-0  00000-0 0 22351
2 79942 025.7100 033.1771 7857485 339.6217 061.9914 01.63932203    04

# Worst residual: 8.21 km
# MJD 60326.000000 (2024 Jan 17  0:00)
A113Vwd
1 79942U 24999ZZW 24017.49919926  .00000000  00000-0  00000-0 0 22352
2 79942 025.7205 032.9122 7857083 340.0696 292.1112 01.63926050    09

# Worst residual: 9.11 km
# MJD 60327.000000 (2024 Jan 18  0:00)
A113Vwd
1 79942U 24999ZZW 24018.49919926  .00000000  00000-0  00000-0 0 22353
2 79942 025.7264 032.6527 7857203 340.5052 162.2377 01.63916050    04

# Worst residual: 7.76 km
# MJD 60328.000000 (2024 Jan 19  0:00)
A113Vwd
1 79942U 24999ZZW 24019.49919926  .00000000  00000-0  00000-0 0 22354
2 79942 025.7247 032.3933 7857784 340.9462 032.3013 01.63908530    04

# Worst residual: 10.34 km
# MJD 60329.000000 (2024 Jan 20  0:00)
A113Vwd
1 79942U 24999ZZW 24020.49919926  .00000000  00000-0  00000-0 0 22356
2 79942 025.7338 032.1276 7857406 341.3978 262.3574 01.63924644    02

# Worst residual: 10.48 km
# MJD 60330.000000 (2024 Jan 21  0:00)
A113Vwd
1 79942U 24999ZZW 24021.49919926  .00000000  00000-0  00000-0 0 22357
2 79942 025.7363 031.8720 7857363 341.8294 132.5149 01.63930743    01

# Worst residual: 8.78 km
# MJD 60331.000000 (2024 Jan 22  0:00)
A113Vwd
1 79942U 24999ZZW 24022.49919926  .00000000  00000-0  00000-0 0 22358
2 79942 025.7339 031.6151 7858195 342.2711 002.6197 01.63921280    09

# Worst residual: 8.49 km
# MJD 60332.000000 (2024 Jan 23  0:00)
A113Vwd
1 79942U 24999ZZW 24023.49919926  .00000000  00000-0  00000-0 0 22359
2 79942 025.7412 031.3537 7857693 342.7111 232.7151 01.63925448    03

# Worst residual: 7.53 km
# MJD 60333.000000 (2024 Jan 24  0:00)
A113Vwd
1 79942U 24999ZZW 24024.49919926  .00000000  00000-0  00000-0 0 22350
2 79942 025.7465 031.0935 7857537 343.1460 102.9013 01.63947173    03

# Worst residual: 7.91 km
# MJD 60334.000000 (2024 Jan 25  0:00)
A113Vwd
1 79942U 24999ZZW 24025.49919926  .00000000  00000-0  00000-0 0 22351
2 79942 025.7522 030.8313 7857680 343.5918 333.0747 01.63945770    07

# Worst residual: 8.24 km
# MJD 60335.000000 (2024 Jan 26  0:00)
A113Vwd
1 79942U 24999ZZW 24026.49919926  .00000000  00000-0  00000-0 0 22352
2 79942 025.7565 030.5736 7857713 344.0263 203.2413 01.63927875    00

# Worst residual: 7.85 km
# MJD 60336.000000 (2024 Jan 27  0:00)
A113Vwd
1 79942U 24999ZZW 24027.49919926  .00000000  00000-0  00000-0 0 22353
2 79942 025.7556 030.3149 7858373 344.4623 073.3451 01.63917478    09

# Worst residual: 8.72 km
# MJD 60337.000000 (2024 Jan 28  0:00)
A113Vwd
1 79942U 24999ZZW 24028.49919926  .00000000  00000-0  00000-0 0 22354
2 79942 025.7626 030.0494 7858628 344.9122 303.3920 01.63903815    06

# Worst residual: 8.21 km
# MJD 60338.000000 (2024 Jan 29  0:00)
A113Vwd
1 79942U 24999ZZW 24029.49919926  .00000000  00000-0  00000-0 0 22355
2 79942 025.7653 029.7963 7858908 345.3415 173.4740 01.63907088    05

# Worst residual: 7.48 km
# MJD 60339.000000 (2024 Jan 30  0:00)
A113Vwd
1 79942U 24999ZZW 24030.49919926  .00000000  00000-0  00000-0 0 22357
2 79942 025.7674 029.5340 7859549 345.7867 043.4785 01.63890297    00

# Worst residual: 10.37 km
# MJD 60340.000000 (2024 Jan 31  0:00)
A113Vwd
1 79942U 24999ZZW 24031.49919926  .00000000  00000-0  00000-0 0 22358
2 79942 025.7783 029.2672 7859048 346.2405 273.4717 01.63905053    01

# Worst residual: 9.28 km
# MJD 60341.000000 (2024 Feb  1  0:00)
A113Vwd
1 79942U 24999ZZW 24032.49919926  .00000000  00000-0  00000-0 0 22359
2 79942 025.7836 029.0109 7858907 346.6731 143.6064 01.63931580    09

# Worst residual: 8.29 km
# MJD 60342.000000 (2024 Feb  2  0:00)
A113Vwd
1 79942U 24999ZZW 24033.49919926  .00000000  00000-0  00000-0 0 22350
2 79942 025.7821 028.7504 7859429 347.1209 013.7267 01.63929963    08

# Worst residual: 8.64 km
# MJD 60343.000000 (2024 Feb  3  0:00)
A113Vwd
1 79942U 24999ZZW 24034.49919926  .00000000  00000-0  00000-0 0 22351
2 79942 025.7872 028.4886 7859158 347.5641 243.8289 01.63918475    03
